<?xml version="1.0" encoding="UTF-8"?>
<gpx version="1.1" creator="Meridian route smoke test" xmlns="http://www.topografix.com/GPX/1/1">
  <metadata><name>Snowdonia smoke route</name></metadata>
  <trk>
    <name>Snowdonia smoke route</name>
    <trkseg>
      <trkpt lat="53.1090" lon="-4.1181" />
      <trkpt lat="53.1070" lon="-4.1080" />
      <trkpt lat="53.1043" lon="-4.0980" />
      <trkpt lat="53.1010" lon="-4.0880" />
      <trkpt lat="53.0970" lon="-4.0790" />
      <trkpt lat="53.0935" lon="-4.0705" />
    </trkseg>
  </trk>
</gpx>
